STARLINK-11251 [DTC]    
1 60930U 24155G   26199.78477441 -.00000233  00000+0  29332-5 0  9996
2 60930  53.1599  54.9053 0001032  95.7050 264.4085 15.69709240108999
STARLINK-11204 [DTC]    
1 60931U 24155H   26199.77986962  .00000976  00000+0  12918-4 0  9993
2 60931  53.1579  54.8734 0001316  83.8594 276.2574 15.69711117108999
STARLINK-11246 [DTC]    
1 60932U 24155J   26199.83863544  .00000382  00000+0  80147-5 0  9992
2 60932  53.1597  54.5261 0001143  90.5916 269.5233 15.69707347109003
STARLINK-11207 [DTC]    
1 60933U 24155K   26199.83372823 -.00000075  00000+0  42398-5 0  9994
2 60933  53.1592  54.4927 0001095  93.9018 266.2125 15.69706665109009
STARLINK-11237 [DTC]    
1 60934U 24155L   26199.82882323  .00002600  00000+0  26316-4 0  9991
2 60934  53.1606  54.4607 0000745  59.9585 300.1506 15.69701733109016
STARLINK-11253 [DTC]    
1 60935U 24155M   26199.81911251 -.00000540  00000+0  40381-6 0  9996
2 60935  53.1616  55.1287 0001386  94.7551 265.3626 15.69713503108991
STARLINK-11241 [DTC]    
1 60936U 24155N   26199.87788108 -.00000687  00000+0 -81589-6 0  9994
2 60936  53.1599  54.7842 0001097  84.7995 275.3148 15.69703821109009
STARLINK-32259          
1 60937U 24155P   26199.84792573 -.00000117  00000+0  76656-5 0  9998
2 60937  53.1596 239.6148 0001107  85.2249 274.8880 15.34387807106435
STARLINK-32258          
1 60939U 24155R   26199.52425616 -.00000664  00000+0 -85207-5 0  9996
2 60939  53.1577 240.4377 0001176  81.3482 278.7654 15.34391400106348
STARLINK-32251          
1 60940U 24155S   26199.48227062 -.00000293  00000+0  24631-5 0  9999
2 60940  53.1588 240.8896 0001102  89.2064 270.9065 15.34397621106389
STARLINK-32224          
1 60941U 24155T   26199.49489302  .00000080  00000+0  13500-4 0  9993
2 60941  53.1590 240.9654 0001101  80.1242 279.9885 15.34387126106392
STARLINK-32184          
1 60942U 24155U   26199.26794068 -.00001825  00000+0 -42907-4 0  9990
2 60942  53.1586 241.6899 0001183  85.7381 274.3757 15.34379199106301
STARLINK-32288          
1 60943U 24155V   26199.53057371 -.00002525  00000+0 -63651-4 0  9997
2 60943  53.1577 240.4774 0001082  88.8951 271.2175 15.34385252106347
STARLINK-32276          
1 60944U 24155W   26199.83531292 -.00000961  00000+0 -17350-4 0  9997
2 60944  53.1593 239.5283 0000717  95.6797 264.4287 15.34377554106487
YAOGAN-43 02A           
1 60945U 24156A   26199.66610748  .00031714  00000+0  50144-3 0  9999
2 60945  34.9952 306.1329 0002045 157.5711 202.5103 15.52442403104851
YAOGAN-43 02B           
1 60946U 24156B   26199.84389847  .00005321  00000+0  22197-3 0  9995
2 60946  34.9965 358.9231 0004066 352.0699   7.9951 15.23038672104276
YAOGAN-43 02C           
1 60947U 24156C   26199.83945465  .00003596  00000+0  15055-3 0  9996
2 60947  35.0000 359.0669 0003527 300.8191  59.2176 15.23034779104278
YAOGAN-43 02D           
1 60948U 24156D   26199.84606043  .00003598  00000+0  15110-3 0  9998
2 60948  34.9940 358.8302 0003240 193.2303 166.8327 15.22933712104279
YAOGAN-43 02E           
1 60949U 24156E   26199.45586758  .00000610  00000+0  27031-4 0  9994
2 60949  34.9978   1.5083 0006189 275.5935  84.4074 15.22783995104213
YAOGAN-43 02F           
1 60950U 24156F   26199.77520877  .00004164  00000+0  17407-3 0  9994
2 60950  34.9946 359.2110 0001621 283.9389  76.1145 15.23040749104262
SENTINEL-2C             
1 60989U 24157A   26199.78095461  .00000036  00000+0  30437-4 0  9997
2 60989  98.5682 274.1142 0001022 105.5193 254.6103 14.30816271 97507
STARLINK-11289 [DTC]    
1 60991U 24158B   26199.82394905 -.00001392  00000+0 -66365-5 0  9999
2 60991  53.1596 354.6092 0000924  87.5737 272.5387 15.69701251108197
STARLINK-11282 [DTC]    
1 60992U 24158C   26199.83865883 -.00000302  00000+0  23651-5 0  9999
2 60992  53.1596 354.7082 0000872  77.6257 282.4858 15.69709317108191
STARLINK-11283 [DTC]    
1 60993U 24158D   26199.80933845  .00006623  00000+0  59585-4 0  9996
2 60993  53.1603 355.2438 0001256 101.1641 258.9518 15.69668203108187
STARLINK-11267 [DTC]    
1 60994U 24158E   26199.74075307 -.00000009  00000+0  47842-5 0  9997
2 60994  53.1606 355.5312 0000839  74.4544 285.6567 15.69708131108170
STARLINK-11269 [DTC]    
1 60995U 24158F   26199.73584492 -.00001704  00000+0 -92023-5 0  9992
2 60995  53.1588 355.4925 0001241 125.2805 234.8329 15.69715037108166
STARLINK-11281 [DTC]    
1 60996U 24158G   26199.73093323  .00002528  00000+0  25704-4 0  9995
2 60996  53.1597 355.4629 0000753  97.6777 262.4326 15.69721259108162
STARLINK-11260 [DTC]    
1 60997U 24158H   26199.79156484 -.00004913  00000+0 -35691-4 0  9998
2 60997  53.1591 332.8166 0000732  70.4775 289.6322 15.69731532108540
STARLINK-11287 [DTC]    
1 60998U 24158J   26199.85337060 -.00001972  00000+0 -11420-4 0  9993
2 60998  53.1596 354.7998 0000804  69.1927 290.9177 15.69717278108180
STARLINK-11270 [DTC]    
1 60999U 24158K   26199.72113124  .00089750  00000+0  73757-3 0  9991
2 60999  53.1569 355.3956 0000915  68.0703 292.0412 15.69713039108169
