OBJECT_NAME,OBJECT_ID,EPOCH,MEAN_MOTION,ECCENTRICITY,INCLINATION,RA_OF_ASC_NODE,ARG_OF_PERICENTER,MEAN_ANOMALY,EPHEMERIS_TYPE,CLASSIFICATION_TYPE,NORAD_CAT_ID,ELEMENT_SET_NO,REV_AT_EPOCH,BSTAR,MEAN_MOTION_DOT,MEAN_MOTION_DDOT
STARLINK-11251 [DTC],2024-155G,2026-07-18T18:50:04.509024,15.69709240,.0001032,53.1599,54.9053,95.7050,264.4085,0,U,60930,999,10899,.29332E-5,-.233E-5,0
STARLINK-11204 [DTC],2024-155H,2026-07-18T18:43:00.735168,15.69711117,.0001316,53.1579,54.8734,83.8594,276.2574,0,U,60931,999,10899,.12918E-4,.976E-5,0
STARLINK-11246 [DTC],2024-155J,2026-07-18T20:07:38.102016,15.69707347,.0001143,53.1597,54.5261,90.5916,269.5233,0,U,60932,999,10900,.80147E-5,.382E-5,0
STARLINK-11207 [DTC],2024-155K,2026-07-18T20:00:34.119072,15.69706665,.0001095,53.1592,54.4927,93.9018,266.2125,0,U,60933,999,10900,.42398E-5,-.75E-6,0
STARLINK-11237 [DTC],2024-155L,2026-07-18T19:53:30.327072,15.69701733,.0000745,53.1606,54.4607,59.9585,300.1506,0,U,60934,999,10901,.26316E-4,.26E-4,0
STARLINK-11253 [DTC],2024-155M,2026-07-18T19:39:31.320864,15.69713503,.0001386,53.1616,55.1287,94.7551,265.3626,0,U,60935,999,10899,.40381E-6,-.54E-5,0
STARLINK-11241 [DTC],2024-155N,2026-07-18T21:04:08.925312,15.69703821,.0001097,53.1599,54.7842,84.7995,275.3148,0,U,60936,999,10900,-.81589E-6,-.687E-5,0
STARLINK-32259,2024-155P,2026-07-18T20:21:00.783072,15.34387807,.0001107,53.1596,239.6148,85.2249,274.8880,0,U,60937,999,10643,.76656E-5,-.117E-5,0
STARLINK-32258,2024-155R,2026-07-18T12:34:55.732224,15.34391400,.00011769,53.1577,240.4377,81.3482,278.7654,0,U,60939,999,10634,-.8520668E-5,-.664E-5,0
STARLINK-32251,2024-155S,2026-07-18T11:34:28.181568,15.34397621,.00011025,53.1588,240.8896,89.2064,270.9065,0,U,60940,999,10638,.2463068E-5,-.293E-5,0
STARLINK-32224,2024-155T,2026-07-18T11:52:38.756928,15.34387126,.00011016,53.1590,240.9654,80.1242,279.9885,0,U,60941,999,10639,.1350003E-4,.8E-6,0
STARLINK-32184,2024-155U,2026-07-18T06:25:50.074752,15.34379199,.00011833,53.1586,241.6899,85.7381,274.3757,0,U,60942,999,10630,-.42907068E-4,-.1825E-4,0
STARLINK-32288,2024-155V,2026-07-18T12:44:01.568544,15.34385252,.0001082,53.1577,240.4774,88.8951,271.2175,0,U,60943,999,10634,-.63651114E-4,-.2525E-4,0
STARLINK-32276,2024-155W,2026-07-18T20:02:51.036288,15.34377554,.0000717,53.1593,239.5283,95.6797,264.4287,0,U,60944,999,10648,-.1735E-4,-.961E-5,0
YAOGAN-43 02A,2024-156A,2026-07-18T15:59:11.686272,15.52442403,.0002045,34.9952,306.1329,157.5711,202.5103,0,U,60945,999,10485,.50144E-3,.31714E-3,0
YAOGAN-43 02B,2024-156B,2026-07-18T20:15:12.827808,15.23038672,.0004066,34.9965,358.9231,352.0699,7.9951,0,U,60946,999,10427,.22197E-3,.5321E-4,0
YAOGAN-43 02C,2024-156C,2026-07-18T20:08:48.881760,15.23034779,.0003527,35.0000,359.0669,300.8191,59.2176,0,U,60947,999,10427,.15055E-3,.3596E-4,0
YAOGAN-43 02D,2024-156D,2026-07-18T20:18:19.621152,15.22933712,.000324,34.9940,358.8302,193.2303,166.8327,0,U,60948,999,10427,.1511E-3,.3598E-4,0
YAOGAN-43 02E,2024-156E,2026-07-18T10:56:26.958912,15.22783995,.00061898,34.9978,1.5083,275.5935,84.4074,0,U,60949,999,10421,.27031479E-4,.61E-5,0
YAOGAN-43 02F,2024-156F,2026-07-18T18:36:18.037728,15.23040749,.0001621,34.9946,359.2110,283.9389,76.1145,0,U,60950,999,10426,.17407E-3,.4164E-4,0
SENTINEL-2C,2024-157A,2026-07-18T18:44:34.478304,14.30816271,.0001022,98.5682,274.1142,105.5193,254.6103,0,U,60989,999,9750,.30437E-4,.36E-6,0
STARLINK-11289 [DTC],2024-158B,2026-07-18T19:46:29.197920,15.69701251,.0000924,53.1596,354.6092,87.5737,272.5387,0,U,60991,999,10819,-.66365E-5,-.1392E-4,0
STARLINK-11282 [DTC],2024-158C,2026-07-18T20:07:40.122912,15.69709317,.0000872,53.1596,354.7082,77.6257,282.4858,0,U,60992,999,10819,.23651E-5,-.302E-5,0
STARLINK-11283 [DTC],2024-158D,2026-07-18T19:25:26.842080,15.69668203,.0001256,53.1603,355.2438,101.1641,258.9518,0,U,60993,999,10818,.59585E-4,.6623E-4,0
STARLINK-11267 [DTC],2024-158E,2026-07-18T17:46:41.065248,15.69708131,.0000839,53.1606,355.5312,74.4544,285.6567,0,U,60994,999,10817,.47842E-5,-.9E-7,0
STARLINK-11269 [DTC],2024-158F,2026-07-18T17:39:37.001088,15.69715037,.0001241,53.1588,355.4925,125.2805,234.8329,0,U,60995,999,10816,-.92023E-5,-.1704E-4,0
STARLINK-11281 [DTC],2024-158G,2026-07-18T17:32:32.631072,15.69721259,.0000753,53.1597,355.4629,97.6777,262.4326,0,U,60996,999,10816,.25704E-4,.2528E-4,0
STARLINK-11260 [DTC],2024-158H,2026-07-18T18:59:51.202176,15.69731532,.0000732,53.1591,332.8166,70.4775,289.6322,0,U,60997,999,10854,-.35691E-4,-.4913E-4,0
STARLINK-11287 [DTC],2024-158J,2026-07-18T20:28:51.219840,15.69717278,.0000804,53.1596,354.7998,69.1927,290.9177,0,U,60998,999,10818,-.1142E-4,-.1972E-4,0
STARLINK-11270 [DTC],2024-158K,2026-07-18T17:18:25.739136,15.69713039,.0000915,53.1569,355.3956,68.0703,292.0412,0,U,60999,999,10816,.73757E-3,.8975E-3,0
